QIANFAN-9               
1 60387U 24140J   25340.61116468  .00000112  00000+0  15552-3 0  9996
2 60387  88.9756 299.9708 0014866 210.5052 149.5236 13.50980119 66507
QIANFAN-10              
1 60388U 24140K   25340.61535522  .00000110  00000+0  15191-3 0  9990
2 60388  88.9766 299.3168 0013996 185.6209 174.4788 13.50980633 66636
QIANFAN-11              
1 60389U 24140L   25340.57835904  .00000121  00000+0  16859-3 0  9997
2 60389  88.9692 299.9125 0012916 209.5105 150.5318 13.50976972 66282
QIANFAN-12              
1 60390U 24140M   25340.59885718  .00000126  00000+0  17672-3 0  9998
2 60390  88.9735 299.9511 0011546 218.0868 141.9468 13.50977738 66416
QIANFAN-13              
1 60391U 24140N   25340.57005626  .00000116  00000+0  16119-3 0  9993
2 60391  88.9747 300.0532 0011308 221.1660 138.8639 13.50978250 66435
QIANFAN-14              
1 60392U 24140P   25340.59464779  .00000113  00000+0  15588-3 0  9990
2 60392  88.9726 299.9497 0014983 222.2075 137.7924 13.50977738 66449
QIANFAN-15              
1 60393U 24140Q   25340.60293184  .00000115  00000+0  15910-3 0  9994
2 60393  88.9750 299.9038 0011128 205.1662 154.8948 13.50976548 66431
QIANFAN-16              
1 60394U 24140R   25340.59072713  .00000132  00000+0  18559-3 0  9997
2 60394  88.9753 300.0250 0012846 226.0371 133.9722 13.50981882 66347
